start=new Date('2022-07-15T00:00:00.000Z').valueOf();
sats=[{"FILE":"3513976","ARG_OF_PERICENTER":"77.3941","PERIOD":"95.593","SITE":"AFETR","NORAD_CAT_ID":"48678","MEAN_ELEMENT_THEORY":"SGP4","MEAN_ANOMALY":"282.7217","DECAY_DATE":null,"TIME_SYSTEM":"UTC","LAUNCH_DATE":"2021-05-26","BSTAR":"-0.00012342000000","RA_OF_ASC_NODE":"340.1610","ECCENTRICITY":"0.00015130","EPHEMERIS_TYPE":"0","TLE_LINE1":"1 48678U 21044AS  22195.69487769 -.00002118  00000-0 -12342-3 0  9998","CENTER_NAME":"EARTH","OBJECT_TYPE":"PAYLOAD","REF_FRAME":"TEME","OBJECT_ID":"2021-044AS","EPOCH":"2022-07-14T16:40:37.432416","APOAPSIS":"548.312","TLE_LINE2":"2 48678  53.0568 340.1610 0001513  77.3941 282.7217 15.06383612 62785","CLASSIFICATION_TYPE":"U","MEAN_MOTION":"15.06383612","ELEMENT_SET_NO":"999","REV_AT_EPOCH":"6278","MEAN_MOTION_DOT":"-0.00002118","OBJECT_NAME":"STARLINK-2615","PERIAPSIS":"546.216","INCLINATION":"53.0568","SEMIMAJOR_AXIS":"6925.399","MEAN_MOTION_DDOT":"0.0000000000000","RCS_SIZE":"LARGE","COUNTRY_CODE":"US","GP_ID":"208133990"},{"LAUNCH_DATE":"2021-05-26","TIME_SYSTEM":"UTC","BSTAR":"-0.00017311000000","RA_OF_ASC_NODE":"339.5880","ECCENTRICITY":"0.00015220","FILE":"3513976","ARG_OF_PERICENTER":"86.6972","SITE":"AFETR","NORAD_CAT_ID":"48679","MEAN_ELEMENT_THEORY":"SGP4","PERIOD":"95.593","MEAN_ANOMALY":"273.4191","DECAY_DATE":null,"INCLINATION":"53.0564","PERIAPSIS":"546.195","OBJECT_NAME":"STARLINK-2648","MEAN_MOTION_DOT":"-0.00002858","SEMIMAJOR_AXIS":"6925.384","MEAN_MOTION_DDOT":"0.0000000000000","GP_ID":"208134241","RCS_SIZE":"LARGE","COUNTRY_CODE":"US","REF_FRAME":"TEME","OBJECT_TYPE":"PAYLOAD","CENTER_NAME":"EARTH","TLE_LINE1":"1 48679U 21044AT  22195.82387625 -.00002858  00000-0 -17311-3 0  9996","EPHEMERIS_TYPE":"0","EPOCH":"2022-07-14T19:46:22.908000","OBJECT_ID":"2021-044AT","APOAPSIS":"548.303","REV_AT_EPOCH":"6280","ELEMENT_SET_NO":"999","MEAN_MOTION":"15.06388439","TLE_LINE2":"2 48679  53.0564 339.5880 0001522  86.6972 273.4191 15.06388439 62803","CLASSIFICATION_TYPE":"U"},{"BSTAR":"-0.00012584000000","TIME_SYSTEM":"UTC","LAUNCH_DATE":"2021-05-26","RA_OF_ASC_NODE":"339.6071","ECCENTRICITY":"0.00015070","NORAD_CAT_ID":"48680","SITE":"AFETR","MEAN_ELEMENT_THEORY":"SGP4","PERIOD":"95.593","ARG_OF_PERICENTER":"73.9955","FILE":"3513976","DECAY_DATE":null,"MEAN_ANOMALY":"286.1200","SEMIMAJOR_AXIS":"6925.370","MEAN_MOTION_DOT":"-0.00002155","INCLINATION":"53.0562","PERIAPSIS":"546.191","OBJECT_NAME":"STARLINK-2649","COUNTRY_CODE":"US","RCS_SIZE":"LARGE","GP_ID":"208134991","MEAN_MOTION_DDOT":"0.0000000000000","OBJECT_ID":"2021-044AU","EPOCH":"2022-07-14T19:41:04.759008","OBJECT_TYPE":"PAYLOAD","CENTER_NAME":"EARTH","TLE_LINE1":"1 48680U 21044AU  22195.82019397 -.00002155  00000-0 -12584-3 0  9993","EPHEMERIS_TYPE":"0","REF_FRAME":"TEME","MEAN_MOTION":"15.06393007","ELEMENT_SET_NO":"999","TLE_LINE2":"2 48680  53.0562 339.6071 0001507  73.9955 286.1200 15.06393007 62808","CLASSIFICATION_TYPE":"U","REV_AT_EPOCH":"6280","APOAPSIS":"548.279"},{"SEMIMAJOR_AXIS":"6925.426","MEAN_MOTION_DOT":"-0.00005258","OBJECT_NAME":"STARLINK-2725","PERIAPSIS":"546.272","INCLINATION":"53.0555","COUNTRY_CODE":"US","RCS_SIZE":"LARGE","GP_ID":"208109454","MEAN_MOTION_DDOT":"0.0000000000000","OBJECT_ID":"2021-044AV","EPOCH":"2022-07-14T16:28:43.063392","TLE_LINE1":"1 48681U 21044AV  22195.68660953 -.00005258  00000-0 -33458-3 0  9998","EPHEMERIS_TYPE":"0","CENTER_NAME":"EARTH","OBJECT_TYPE":"PAYLOAD","REF_FRAME":"TEME","TLE_LINE2":"2 48681  53.0555 310.4266 0001472  87.4915 272.6242 15.06374600 64098","CLASSIFICATION_TYPE":"U","ELEMENT_SET_NO":"999","MEAN_MOTION":"15.06374600","REV_AT_EPOCH":"6409","APOAPSIS":"548.311","BSTAR":"-0.00033458000000","TIME_SYSTEM":"UTC","LAUNCH_DATE":"2021-05-26","ECCENTRICITY":"0.00014720","RA_OF_ASC_NODE":"310.4266","PERIOD":"95.594","SITE":"AFETR","MEAN_ELEMENT_THEORY":"SGP4","NORAD_CAT_ID":"48681","FILE":"3513841","ARG_OF_PERICENTER":"87.4915","DECAY_DATE":null,"MEAN_ANOMALY":"272.6242"},{"RA_OF_ASC_NODE":"299.3302","ECCENTRICITY":"0.00015270","BSTAR":"-0.00129610000000","TIME_SYSTEM":"UTC","LAUNCH_DATE":"2021-05-26","DECAY_DATE":null,"MEAN_ANOMALY":"126.2139","NORAD_CAT_ID":"48682","SITE":"AFETR","MEAN_ELEMENT_THEORY":"SGP4","PERIOD":"95.592","ARG_OF_PERICENTER":"57.3123","FILE":"3513976","COUNTRY_CODE":"US","RCS_SIZE":"LARGE","GP_ID":"208133491","MEAN_MOTION_DDOT":"0.0000000000000","SEMIMAJOR_AXIS":"6925.323","MEAN_MOTION_DOT":"-0.00019539","OBJECT_NAME":"STARLINK-2743","PERIAPSIS":"546.130","INCLINATION":"53.0541","ELEMENT_SET_NO":"999","MEAN_MOTION":"15.06408378","CLASSIFICATION_TYPE":"U","TLE_LINE2":"2 48682  53.0541 299.3302 0001527  57.3123 126.2139 15.06408378  1302","REV_AT_EPOCH":"130","APOAPSIS":"548.245","OBJECT_ID":"2021-044AW","EPOCH":"2022-07-14T22:00:00.999936","OBJECT_TYPE":"PAYLOAD","CENTER_NAME":"EARTH","TLE_LINE1":"1 48682U 21044AW  22195.91667824 -.00019539  00000-0 -12961-2 0  9991","EPHEMERIS_TYPE":"0","REF_FRAME":"TEME"},{"REV_AT_EPOCH":"6417","TLE_LINE2":"2 48683  53.0552 300.4223 0001527  74.7720 285.3438 15.06385098 64173","CLASSIFICATION_TYPE":"U","MEAN_MOTION":"15.06385098","ELEMENT_SET_NO":"999","APOAPSIS":"548.317","EPOCH":"2022-07-14T15:20:59.704224","OBJECT_ID":"2021-044AX","REF_FRAME":"TEME","TLE_LINE1":"1 48683U 21044AX  22195.63957991  .00003156  00000-0  23076-3 0  9994","CENTER_NAME":"EARTH","EPHEMERIS_TYPE":"0","OBJECT_TYPE":"PAYLOAD","GP_ID":"208109846","COUNTRY_CODE":"US","RCS_SIZE":"LARGE","MEAN_MOTION_DDOT":"0.0000000000000","SEMIMAJOR_AXIS":"6925.394","INCLINATION":"53.0552","PERIAPSIS":"546.202","OBJECT_NAME":"STARLINK-2756","MEAN_MOTION_DOT":"0.00003156","DECAY_DATE":null,"MEAN_ANOMALY":"285.3438","PERIOD":"95.593","SITE":"AFETR","MEAN_ELEMENT_THEORY":"SGP4","NORAD_CAT_ID":"48683","ARG_OF_PERICENTER":"74.7720","FILE":"3513843","RA_OF_ASC_NODE":"300.4223","ECCENTRICITY":"0.00015270","BSTAR":"0.00023076000000","LAUNCH_DATE":"2021-05-26","TIME_SYSTEM":"UTC"},{"EPOCH":"2022-07-14T19:04:38.972928","OBJECT_ID":"2021-044AY","REF_FRAME":"TEME","TLE_LINE1":"1 48684U 21044AY  22195.79489552 -.00000460  00000-0 -12009-4 0  9997","EPHEMERIS_TYPE":"0","CENTER_NAME":"EARTH","OBJECT_TYPE":"PAYLOAD","REV_AT_EPOCH":"6314","TLE_LINE2":"2 48684  53.0554 315.0628 0001364  79.2142 280.9001 15.06391896 63140","CLASSIFICATION_TYPE":"U","ELEMENT_SET_NO":"999","MEAN_MOTION":"15.06391896","APOAPSIS":"548.183","SEMIMAJOR_AXIS":"6925.373","PERIAPSIS":"546.294","INCLINATION":"53.0554","OBJECT_NAME":"STARLINK-2741","MEAN_MOTION_DOT":"-0.00000460","GP_ID":"208134491","COUNTRY_CODE":"US","RCS_SIZE":"LARGE","MEAN_MOTION_DDOT":"0.0000000000000","PERIOD":"95.593","NORAD_CAT_ID":"48684","SITE":"AFETR","MEAN_ELEMENT_THEORY":"SGP4","FILE":"3513976","ARG_OF_PERICENTER":"79.2142","DECAY_DATE":null,"MEAN_ANOMALY":"280.9001","BSTAR":"-0.00001200900000","LAUNCH_DATE":"2021-05-26","TIME_SYSTEM":"UTC","ECCENTRICITY":"0.00013640","RA_OF_ASC_NODE":"315.0628"},{"OBJECT_ID":"2021-044AZ","EPOCH":"2022-07-14T14:38:32.730720","OBJECT_TYPE":"PAYLOAD","TLE_LINE1":"1 48685U 21044AZ  22195.61010105 -.00001437  00000-0 -77635-4 0  9994","CENTER_NAME":"EARTH","EPHEMERIS_TYPE":"0","REF_FRAME":"TEME","MEAN_MOTION":"15.06391766","ELEMENT_SET_NO":"999","CLASSIFICATION_TYPE":"U","TLE_LINE2":"2 48685  53.0570 300.5908 0001290  93.0559 267.0577 15.06391766 63334","REV_AT_EPOCH":"6333","APOAPSIS":"548.132","SEMIMAJOR_AXIS":"6925.374","MEAN_MOTION_DOT":"-0.00001437","OBJECT_NAME":"STARLINK-2751","PERIAPSIS":"546.345","INCLINATION":"53.0570","COUNTRY_CODE":"US","RCS_SIZE":"LARGE","GP_ID":"208135238","MEAN_MOTION_DDOT":"0.0000000000000","SITE":"AFETR","NORAD_CAT_ID":"48685","MEAN_ELEMENT_THEORY":"SGP4","PERIOD":"95.593","FILE":"3513976","ARG_OF_PERICENTER":"93.0559","DECAY_DATE":null,"MEAN_ANOMALY":"267.0577","BSTAR":"-0.00007763500000","TIME_SYSTEM":"UTC","LAUNCH_DATE":"2021-05-26","RA_OF_ASC_NODE":"300.5908","ECCENTRICITY":"0.00012900"},{"BSTAR":"-0.00013669000000","TIME_SYSTEM":"UTC","LAUNCH_DATE":"2021-05-26","ECCENTRICITY":"0.00014450","RA_OF_ASC_NODE":"304.9566","PERIOD":"95.593","SITE":"AFETR","MEAN_ELEMENT_THEORY":"SGP4","NORAD_CAT_ID":"48686","FILE":"3513976","ARG_OF_PERICENTER":"59.9673","DECAY_DATE":null,"MEAN_ANOMALY":"300.1459","SEMIMAJOR_AXIS":"6925.400","MEAN_MOTION_DOT":"-0.00002316","INCLINATION":"53.0555","PERIAPSIS":"546.265","OBJECT_NAME":"STARLINK-2629","COUNTRY_CODE":"US","RCS_SIZE":"LARGE","GP_ID":"208133991","MEAN_MOTION_DDOT":"0.0000000000000","OBJECT_ID":"2021-044BA","EPOCH":"2022-07-14T19:16:35.533056","EPHEMERIS_TYPE":"0","TLE_LINE1":"1 48686U 21044BA  22195.80318904 -.00002316  00000-0 -13669-3 0  9997","CENTER_NAME":"EARTH","OBJECT_TYPE":"PAYLOAD","REF_FRAME":"TEME","CLASSIFICATION_TYPE":"U","TLE_LINE2":"2 48686  53.0555 304.9566 0001445  59.9673 300.1459 15.06383130 63284","MEAN_MOTION":"15.06383130","ELEMENT_SET_NO":"999","REV_AT_EPOCH":"6328","APOAPSIS":"548.266"},{"SEMIMAJOR_AXIS":"6925.375","INCLINATION":"53.0537","PERIAPSIS":"546.321","OBJECT_NAME":"STARLINK-2627","MEAN_MOTION_DOT":"0.00000467","GP_ID":"208134242","RCS_SIZE":"LARGE","COUNTRY_CODE":"US","MEAN_MOTION_DDOT":"0.0000000000000","EPOCH":"2022-07-14T18:40:41.659680","OBJECT_ID":"2021-044BB","REF_FRAME":"TEME","TLE_LINE1":"1 48687U 21044BB  22195.77825995  .00000467  00000-0  50246-4 0  9993","CENTER_NAME":"EARTH","EPHEMERIS_TYPE":"0","OBJECT_TYPE":"PAYLOAD","REV_AT_EPOCH":"6342","CLASSIFICATION_TYPE":"U","TLE_LINE2":"2 48687  53.0537 294.7928 0001327  85.1961 274.9179 15.06391478 63420","ELEMENT_SET_NO":"999","MEAN_MOTION":"15.06391478","APOAPSIS":"548.159","BSTAR":"0.00005024600000","LAUNCH_DATE":"2021-05-26","TIME_SYSTEM":"UTC","ECCENTRICITY":"0.00013270","RA_OF_ASC_NODE":"294.7928","PERIOD":"95.593","MEAN_ELEMENT_THEORY":"SGP4","SITE":"AFETR","NORAD_CAT_ID":"48687","FILE":"3513976","ARG_OF_PERICENTER":"85.1961","DECAY_DATE":null,"MEAN_ANOMALY":"274.9179"}];
